NORAD_CAT_ID,OBJECT_NAME,OBJECT_TYPE,EPOCH,MEAN_MOTION,ECCENTRICITY,INCLINATION,RA_OF_ASC_NODE,ARG_OF_PERICENTER,MEAN_ANOMALY,BSTAR,MEAN_MOTION_DOT,MEAN_MOTION_DDOT,TLE_LINE0,TLE_LINE1,TLE_LINE2,SEMIMAJOR_AXIS,PERIOD,APOGEE,PERIGEE,DECAYED
53389.0,STARLINK-4523,PAYLOAD,2022-08-15 18:00:00,15.85202336,0.0018460999999999,53.2175,220.7707,52.0456,6.3044,-0.0053159,-0.01153714,0.0,0 STARLINK-4523,1 53389U 22097B   22227.75001157 -.01153714  00000-0 -53159-2 0  9998,2 53389  53.2175 220.7707 0018461  52.0456   6.3044 15.85202336  1306,6693.892,90.84,328.115,303.399,0.0
53389.0,STARLINK-4523,PAYLOAD,2022-08-16 06:00:02,15.83908965,0.0013449,53.2175,218.2557,48.5682,343.7142,-0.0057734,-0.01164488,0.0,0 STARLINK-4523,1 53389U 22097B   22228.25002315 -.01164488  00000-0 -57734-2 0  9994,2 53389  53.2175 218.2557 0013449  48.5682 343.7142 15.83908965  1376,6697.536,90.914,328.408,310.393,0.0
53389.0,STARLINK-4523,PAYLOAD,2022-08-16 14:00:01,15.83041461,0.0010208,53.2173,216.5804,45.9953,87.4978,-0.006037,-0.01184497,0.0,0 STARLINK-4523,1 53389U 22097B   22228.58334491 -.01184497  00000-0 -60370-2 0  9995,2 53389  53.2173 216.5804 0010208  45.9953  87.4978 15.83041461  1303,6699.982,90.964,328.6869999999999,315.008,0.0
53389.0,STARLINK-4523,PAYLOAD,2022-08-16 22:00:00,15.82198061,0.0007601,53.2173,214.9062,41.6357,192.0829,-0.0065385,-0.01224085,0.0,0 STARLINK-4523,1 53389U 22097B   22228.91667824 -.01224085  00000-0 -65385-2 0  9990,2 53389  53.2173 214.9062 0007601  41.6357 192.0829 15.82198061  1480,6702.363,91.013,329.32199999999995,319.133,0.0
53389.0,STARLINK-4523,PAYLOAD,2022-08-17 14:00:01,15.80443857,0.0003867,53.2173,211.5688,7.8451,63.2169,-0.0069081,-0.01191435,0.0,0 STARLINK-4523,1 53389U 22097B   22229.58334491 -.01191435  00000-0 -69081-2 0  9994,2 53389  53.2173 211.5688 0003867   7.8451  63.2169 15.80443857  1307,6707.321999999999,91.114,331.78,326.593,0.0
53389.0,STARLINK-4523,PAYLOAD,2022-08-18 08:00:01,15.7849074,0.0003259,53.2182,207.8236,345.6183,32.461,-0.007555,-0.01190702,0.0,0 STARLINK-4523,1 53389U 22097B   22230.33334491 -.01190702  00000-0 -75550-2 0  9993,2 53389  53.2182 207.8236 0003259 345.6183  32.4610 15.78490740  1707,6712.853,91.226,336.906,332.53,0.0
53389.0,STARLINK-4523,PAYLOAD,2022-08-18 14:00:01,15.77840402,0.000349,53.2175,206.5762,335.5490000000001,23.6962,-0.0077776,-0.01190344,0.0,0 STARLINK-4523,1 53389U 22097B   22230.58334491 -.01190344  00000-0 -77776-2 0  9994,2 53389  53.2175 206.5762 0003490 335.5490  23.6962 15.77840402  1306,6714.698,91.264,338.906,334.219,0.0
53389.0,STARLINK-4523,PAYLOAD,2022-08-18 22:00:00,15.76974145,0.0003767,53.2175,204.915,1.4704,91.7497,-0.0081009,-0.01192322,0.0,0 STARLINK-4523,1 53389U 22097B   22230.91667824 -.01192322  00000-0 -81009-2 0  9992,2 53389  53.2175 204.9150 0003767   1.4704  91.7497 15.76974145  1303,6717.156,91.314,341.552,336.491,0.0
53389.0,STARLINK-4523,PAYLOAD,2022-08-19 14:00:01,15.752390599999998,8.640000000000001e-05,53.2174,201.6029,59.3539,218.6872,-0.0087642,-0.01192255,0.0,0 STARLINK-4523,1 53389U 22097B   22231.58334491 -.01192255  00000-0 -87642-2 0  9991,2 53389  53.2174 201.6029 0000864  59.3539 218.6872 15.75239060  1300,6722.0880000000025,91.415,344.534,343.372,0.0
53389.0,STARLINK-4523,PAYLOAD,2022-08-19 16:00:00,15.7502535,0.000103,53.2177,201.189,50.4997,340.3493,-0.0088908999999999,-0.01197558,0.0,0 STARLINK-4523,1 53389U 22097B   22231.66667824 -.01197558  00000-0 -88909-2 0  9997,2 53389  53.2177 201.1890 0001030  50.4997 340.3493 15.75025350  1914,6722.696,91.427,345.25300000000016,343.869,0.0
53389.0,STARLINK-4523,PAYLOAD,2022-08-19 22:00:00,15.74297501,0.0001135,53.2177,199.9483,66.0781,302.8242,-0.0077301,-0.01026851,0.0,0 STARLINK-4523,1 53389U 22097B   22231.91667824 -.01026851  00000-0 -77301-2 0  9996,2 53389  53.2177 199.9483 0001135  66.0781 302.8242 15.74297501  1302,6724.768,91.469,347.396,345.87,0.0
53389.0,STARLINK-4523,PAYLOAD,2022-08-20 08:00:01,15.73280391,0.000143,53.2176,197.8868,53.1391,157.8828,-0.00087297,-0.00121797,0.0,0 STARLINK-4523,1 53389U 22097B   22232.33334491 -.00121797  00000-0 -87297-3 0  9994,2 53389  53.2176 197.8868 0001430  53.1391 157.8828 15.73280391  2023,6727.666,91.529,350.49300000000005,348.569,0.0
53389.0,STARLINK-4523,PAYLOAD,2022-08-20 14:00:01,15.73206372,0.0001100999999999,53.2174,196.6481,76.8399,110.9193,-3.2419e-05,-5.168e-05,0.0,0 STARLINK-4523,1 53389U 22097B   22232.58334491 -.00005168  00000-0 -32419-4 0  9991,2 53389  53.2174 196.6481 0001101  76.8399 110.9193 15.73206372  1306,6727.877,91.533,350.483,349.001,0.0
53389.0,STARLINK-4523,PAYLOAD,2022-08-20 22:00:00,15.73124414,5.76e-05,53.2182,194.9985,67.2932,209.1751,0.0034931999999999,0.00519591,0.0,0 STARLINK-4523,1 53389U 22097B   22232.91667824  .00519591  00000-0  34932-2 0  9995,2 53389  53.2182 194.9985 0000576  67.2932 209.1751 15.73124414  1304,6728.111,91.538,350.36300000000006,349.588,0.0
53389.0,STARLINK-4523,PAYLOAD,2022-08-21 06:00:00,15.73183743,6.36e-05,53.2197,193.3533,47.0431,318.3353,0.00034656,0.00048263,0.0,0 STARLINK-4523,1 53389U 22097B   22233.25001157  .00048263  00000-0  34656-3 0  9991,2 53389  53.2197 193.3533 0000636  47.0431 318.3353 15.73183743  2165,6727.941999999999,91.534,350.2340000000001,349.379,0.0
53389.0,STARLINK-4523,PAYLOAD,2022-08-21 14:00:01,15.73249418,5.05e-05,53.2198,191.7026,50.0383,44.2852,0.00011961,0.00016235,0.0,0 STARLINK-4523,1 53389U 22097B   22233.58334491  .00016235  00000-0  11961-3 0  9995,2 53389  53.2198 191.7026 0000505  50.0383  44.2852 15.73249418  1306,6727.754,91.53,349.959,349.28,0.0
53389.0,STARLINK-4523,PAYLOAD,2022-08-21 22:00:00,15.73263557,5.62e-05,53.2202,190.0525,68.8984,114.398,0.00032019,0.00044678,0.0,0 STARLINK-4523,1 53389U 22097B   22233.91667824  .00044678  00000-0  32019-3 0  9990,2 53389  53.2202 190.0525 0000562  68.8984 114.3980 15.73263557  1306,6727.714,91.529,349.957,349.201,0.0
53389.0,STARLINK-4523,PAYLOAD,2022-08-22 12:00:00,15.73288984,9.61e-05,53.2195,187.1668,61.2831,187.8112,-0.00092511,-0.00128965,0.0,0 STARLINK-4523,1 53389U 22097B   22234.50001157 -.00128965  00000-0 -92511-3 0  9994,2 53389  53.2195 187.1668 0000961  61.2831 187.8112 15.73288984  1306,6727.641,91.528,350.153,348.86,0.0
53389.0,STARLINK-4523,PAYLOAD,2022-08-22 22:00:00,15.73233378,0.0001123,53.2199,185.1042,80.5406,9.763,6.2883e-05,8.226e-05,0.0,0 STARLINK-4523,1 53389U 22097B   22234.91667824  .00008226  00000-0  62883-4 0  9993,2 53389  53.2199 185.1042 0001123  80.5406   9.7630 15.73233378  2436,6727.8,91.531,350.421,348.909,0.0
53389.0,STARLINK-4523,PAYLOAD,2022-08-23 06:00:00,15.73182661,0.0001296999999999,53.22,183.4568,68.1575,111.1007,6.826e-05,8.963e-05,0.0,0 STARLINK-4523,1 53389U 22097B   22235.25001157  .00008963  00000-0  68260-4 0  9995,2 53389  53.2200 183.4568 0001297  68.1575 111.1007 15.73182661  2483,6727.945,91.534,350.682,348.93699999999984,0.0
53389.0,STARLINK-4523,PAYLOAD,2022-08-23 14:00:01,15.73274676,0.0001026,53.2203,181.8057,74.5553,193.6761,0.00021425,0.0002965,0.0,0 STARLINK-4523,1 53389U 22097B   22235.58334491  .00029650  00000-0  21425-3 0  9998,2 53389  53.2203 181.8057 0001026  74.5553 193.6761 15.73274676  2534,6727.682,91.529,350.23800000000006,348.857,0.0
53389.0,STARLINK-4523,PAYLOAD,2022-08-23 20:00:01,15.73143105,0.0001267,53.2177,180.5642,78.5533,166.3448,0.00071296,0.00100396,0.0,0 STARLINK-4523,1 53389U 22097B   22235.83334491  .00100396  00000-0  71296-3 0  9994,2 53389  53.2177 180.5642 0001267  78.5533 166.3448 15.73143105  2574,6728.057,91.536,350.775,349.07,0.0
53389.0,STARLINK-4523,PAYLOAD,2022-08-23 22:00:01,15.73206922,0.000132,53.2177,180.1519,76.9432,280.2233,-2.2129e-05,-3.725e-05,0.0,0 STARLINK-4523,1 53389U 22097B   22235.91668981 -.00003725  00000-0 -22129-4 0  9999,2 53389  53.2177 180.1519 0001320  76.9432 280.2233 15.73206922  1308,6727.875,91.533,350.629,348.852,0.0
53389.0,STARLINK-4523,PAYLOAD,2022-08-24 14:00:01,15.7318937,0.0001072,53.2205,176.8575,74.3004,100.7567,0.00010947,0.00014763,0.0,0 STARLINK-4523,1 53389U 22097B   22236.58334491  .00014763  00000-0  10947-3 0  9995,2 53389  53.2205 176.8575 0001072  74.3004 100.7567 15.73189370  1308,6727.925,91.534,350.51199999999994,349.069,0.0
53389.0,STARLINK-4523,PAYLOAD,2022-08-24 16:00:00,15.7317361,0.0001035,53.2204,176.4449,78.4974,208.799,0.00048415,0.00067799,0.0,0 STARLINK-4523,1 53389U 22097B   22236.66667824  .00067799  00000-0  48415-3 0  9991,2 53389  53.2204 176.4449 0001035  78.4974 208.7990 15.73173610  2707,6727.97,91.535,350.532,349.139,0.0
53389.0,STARLINK-4523,PAYLOAD,2022-08-24 22:00:00,15.73238836,9.990000000000004e-05,53.2202,175.2084,81.2831,182.6935,-0.00015067,-0.00021745,0.0,0 STARLINK-4523,1 53389U 22097B   22236.91667824 -.00021745  00000-0 -15067-3 0  9999,2 53389  53.2202 175.2084 0000999  81.2831 182.6935 15.73238836  1305,6727.784000000002,91.531,350.32199999999995,348.977,0.0
53389.0,STARLINK-4523,PAYLOAD,2022-08-25 06:00:02,15.73189789,9.57e-05,53.2196,173.5608,65.945,287.0824,0.00011755,0.00015902,0.0,0 STARLINK-4523,1 53389U 22097B   22237.25002315  .00015902  00000-0  11755-3 0  9991,2 53389  53.2196 173.5608 0000957  65.9450 287.0824 15.73189789  2793,6727.924,91.534,350.43300000000005,349.145,0.0
53389.0,STARLINK-4523,PAYLOAD,2022-08-25 14:00:01,15.73187742,7.72e-05,53.2194,171.9096,73.9482,7.9337,0.00020439,0.00028146,0.0,0 STARLINK-4523,1 53389U 22097B   22237.58334491  .00028146  00000-0  20439-3 0  9993,2 53389  53.2194 171.9096 0000772  73.9482   7.9337 15.73187742  1304,6727.93,91.534,350.315,349.276,0.0
53389.0,STARLINK-4523,PAYLOAD,2022-08-25 22:00:00,15.73256935,9.79e-05,53.2196,170.2603,77.7796,93.0238,-0.00048515,-0.00068319,0.0,0 STARLINK-4523,1 53389U 22097B   22237.91667824 -.00068319  00000-0 -48515-3 0  9992,2 53389  53.2196 170.2603 0000979  77.7796  93.0238 15.73256935  1308,6727.733,91.53,350.256,348.939,0.0
